{
  "type": "FeatureCollection",
  "features": [
    {
      "type": "Feature",
      "properties": {
        "norad_id": 30996,
        "name": "FENGYUN 1C DEB",
        "group": "fengyun-1c-debris",
        "lat": 26.445311782670963,
        "lon": -98.72727365856369,
        "alt_km": 797.5883939085625,
        "timestamp": "2025-12-26T07:29:18.735533+00:00",
        "meta_object_name": "FENGYUN 1C DEB",
        "meta_object_id": "1999-025BCN",
        "meta_epoch": "2025-12-25T16:27:19.582848",
        "meta_mean_motion": 14.35474873,
        "meta_eccentricity": 0.00494939,
        "meta_inclination": 98.9435,
        "meta_ra_of_asc_node": 265.1161,
        "meta_arg_of_pericenter": 253.3261,
        "meta_mean_anomaly": 138.0612,
        "meta_ephemeris_type": 0,
        "meta_classification_type": "U",
        "meta_norad_cat_id": 30996,
        "meta_element_set_no": 999,
        "meta_rev_at_epoch": 97749,
        "meta_bstar": 0.00088809338,
        "meta_mean_motion_dot": 2.542e-05,
        "meta_mean_motion_ddot": 0,
        "tle_line1": "1 30996U 99025BCN 25359.68564332  .00002542  00000+0  88809-3 0  9991",
        "tle_line2": "2 30996  98.9435 265.1161 0049493 253.3261 138.0612 14.35474873977493"
      },
      "geometry": {
        "type": "Point",
        "coordinates": [
          -98.72727365856369,
          26.445311782670963
        ]
      }
    },
    {
      "type": "Feature",
      "properties": {
        "norad_id": 30998,
        "name": "FENGYUN 1C DEB",
        "group": "fengyun-1c-debris",
        "lat": -64.97133939388905,
        "lon": 103.83559782902054,
        "alt_km": 745.3164956597229,
        "timestamp": "2025-12-26T07:29:18.735543+00:00",
        "meta_object_name": "FENGYUN 1C DEB",
        "meta_object_id": "1999-025BCQ",
        "meta_epoch": "2025-12-25T22:08:06.167904",
        "meta_mean_motion": 14.4812188,
        "meta_eccentricity": 0.00127033,
        "meta_inclination": 98.8285,
        "meta_ra_of_asc_node": 83.9861,
        "meta_arg_of_pericenter": 159.9387,
        "meta_mean_anomaly": 262.9391,
        "meta_ephemeris_type": 0,
        "meta_classification_type": "U",
        "meta_norad_cat_id": 30998,
        "meta_element_set_no": 999,
        "meta_rev_at_epoch": 97381,
        "meta_bstar": 0.0024208477,
        "meta_mean_motion_dot": 8.985e-05,
        "meta_mean_motion_ddot": 0,
        "tle_line1": "1 30998U 99025BCQ 25359.92229361  .00008985  00000+0  24208-2 0  9999",
        "tle_line2": "2 30998  98.8285  83.9861 0012703 159.9387 262.9391 14.48121880973818"
      },
      "geometry": {
        "type": "Point",
        "coordinates": [
          103.83559782902054,
          -64.97133939388905
        ]
      }
    },
    {
      "type": "Feature",
      "properties": {
        "norad_id": 30999,
        "name": "FENGYUN 1C DEB",
        "group": "fengyun-1c-debris",
        "lat": -16.663948028229775,
        "lon": -7.433398824215368,
        "alt_km": 715.7049685699376,
        "timestamp": "2025-12-26T07:29:18.735553+00:00",
        "meta_object_name": "FENGYUN 1C DEB",
        "meta_object_id": "1999-025BCR",
        "meta_epoch": "2025-12-25T10:49:13.395936",
        "meta_mean_motion": 14.58489282,
        "meta_eccentricity": 0.0112594,
        "meta_inclination": 99.0916,
        "meta_ra_of_asc_node": 174.3725,
        "meta_arg_of_pericenter": 299.2705,
        "meta_mean_anomaly": 59.7274,
        "meta_ephemeris_type": 0,
        "meta_classification_type": "U",
        "meta_norad_cat_id": 30999,
        "meta_element_set_no": 999,
        "meta_rev_at_epoch": 99016,
        "meta_bstar": 0.00066851,
        "meta_mean_motion_dot": 3.327e-05,
        "meta_mean_motion_ddot": 0,
        "tle_line1": "1 30999U 99025BCR 25359.45084949  .00003327  00000+0  66851-3 0  9995",
        "tle_line2": "2 30999  99.0916 174.3725 0112594 299.2705  59.7274 14.58489282990161"
      },
      "geometry": {
        "type": "Point",
        "coordinates": [
          -7.433398824215368,
          -16.663948028229775
        ]
      }
    },
    {
      "type": "Feature",
      "properties": {
        "norad_id": 31000,
        "name": "FENGYUN 1C DEB",
        "group": "fengyun-1c-debris",
        "lat": -25.999279083892063,
        "lon": 30.525453317387036,
        "alt_km": 792.8844791771762,
        "timestamp": "2025-12-26T07:29:18.735563+00:00",
        "meta_object_name": "FENGYUN 1C DEB",
        "meta_object_id": "1999-025BCS",
        "meta_epoch": "2025-12-25T01:12:10.495008",
        "meta_mean_motion": 14.09669303,
        "meta_eccentricity": 0.01647769,
        "meta_inclination": 97.5649,
        "meta_ra_of_asc_node": 25.7475,
        "meta_arg_of_pericenter": 30.4254,
        "meta_mean_anomaly": 24.7095,
        "meta_ephemeris_type": 0,
        "meta_classification_type": "U",
        "meta_norad_cat_id": 31000,
        "meta_element_set_no": 999,
        "meta_rev_at_epoch": 70130,
        "meta_bstar": 0.00053920853,
        "meta_mean_motion_dot": 1.039e-05,
        "meta_mean_motion_ddot": 0,
        "tle_line1": "1 31000U 99025BCS 25359.05012147  .00001039  00000+0  53921-3 0  9998",
        "tle_line2": "2 31000  97.5649  25.7475 0164776  30.4254  24.7095 14.09669303701304"
      },
      "geometry": {
        "type": "Point",
        "coordinates": [
          30.525453317387036,
          -25.999279083892063
        ]
      }
    },
    {
      "type": "Feature",
      "properties": {
        "norad_id": 31001,
        "name": "FENGYUN 1C DEB",
        "group": "fengyun-1c-debris",
        "lat": -71.70770422215921,
        "lon": -95.99762422789567,
        "alt_km": 860.3327311811054,
        "timestamp": "2025-12-26T07:29:18.735573+00:00",
        "meta_object_name": "FENGYUN 1C DEB",
        "meta_object_id": "1999-025BCT",
        "meta_epoch": "2025-12-23T03:16:58.668960",
        "meta_mean_motion": 14.42886652,
        "meta_eccentricity": 0.014716,
        "meta_inclination": 99.2722,
        "meta_ra_of_asc_node": 230.9335,
        "meta_arg_of_pericenter": 122.0416,
        "meta_mean_anomaly": 239.5163,
        "meta_ephemeris_type": 0,
        "meta_classification_type": "U",
        "meta_norad_cat_id": 31001,
        "meta_element_set_no": 999,
        "meta_rev_at_epoch": 98356,
        "meta_bstar": 0.00031638475,
        "meta_mean_motion_dot": 1.148e-05,
        "meta_mean_motion_ddot": 0,
        "tle_line1": "1 31001U 99025BCT 25357.13679015  .00001148  00000+0  31638-3 0  9991",
        "tle_line2": "2 31001  99.2722 230.9335 0147160 122.0416 239.5163 14.42886652983564"
      },
      "geometry": {
        "type": "Point",
        "coordinates": [
          -95.99762422789567,
          -71.70770422215921
        ]
      }
    },
    {
      "type": "Feature",
      "properties": {
        "norad_id": 31002,
        "name": "FENGYUN 1C DEB",
        "group": "fengyun-1c-debris",
        "lat": -1.594729450864957,
        "lon": 12.113527227483557,
        "alt_km": 851.577488215843,
        "timestamp": "2025-12-26T07:29:18.735583+00:00",
        "meta_object_name": "FENGYUN 1C DEB",
        "meta_object_id": "1999-025BCU",
        "meta_epoch": "2025-12-20T21:37:46.056000",
        "meta_mean_motion": 13.9920967,
        "meta_eccentricity": 0.0098565,
        "meta_inclination": 98.885,
        "meta_ra_of_asc_node": 6.6158,
        "meta_arg_of_pericenter": 325.1028,
        "meta_mean_anomaly": 152.4938,
        "meta_ephemeris_type": 0,
        "meta_classification_type": "U",
        "meta_norad_cat_id": 31002,
        "meta_element_set_no": 999,
        "meta_rev_at_epoch": 95719,
        "meta_bstar": 0.00023571,
        "meta_mean_motion_dot": 3.13e-06,
        "meta_mean_motion_ddot": 0,
        "tle_line1": "1 31002U 99025BCU 25354.90122750  .00000313  00000+0  23571-3 0  9993",
        "tle_line2": "2 31002  98.8850   6.6158 0098565 325.1028 152.4938 13.99209670957195"
      },
      "geometry": {
        "type": "Point",
        "coordinates": [
          12.113527227483557,
          -1.594729450864957
        ]
      }
    },
    {
      "type": "Feature",
      "properties": {
        "norad_id": 31003,
        "name": "FENGYUN 1C DEB",
        "group": "fengyun-1c-debris",
        "lat": 21.296741918100885,
        "lon": -99.3215296119374,
        "alt_km": 780.2136128544935,
        "timestamp": "2025-12-26T07:29:18.735593+00:00",
        "meta_object_name": "FENGYUN 1C DEB",
        "meta_object_id": "1999-025BCV",
        "meta_epoch": "2025-12-25T03:46:49.245024",
        "meta_mean_motion": 14.24771344,
        "meta_eccentricity": 0.0042103,
        "meta_inclination": 98.8424,
        "meta_ra_of_asc_node": 76.0372,
        "meta_arg_of_pericenter": 179.529,
        "meta_mean_anomaly": 180.5935,
        "meta_ephemeris_type": 0,
        "meta_classification_type": "U",
        "meta_norad_cat_id": 31003,
        "meta_element_set_no": 999,
        "meta_rev_at_epoch": 96686,
        "meta_bstar": 0.0014380892,
        "meta_mean_motion_dot": 3.338e-05,
        "meta_mean_motion_ddot": 0,
        "tle_line1": "1 31003U 99025BCV 25359.15751441  .00003338  00000+0  14381-2 0  9999",
        "tle_line2": "2 31003  98.8424  76.0372 0042103 179.5290 180.5935 14.24771344966865"
      },
      "geometry": {
        "type": "Point",
        "coordinates": [
          -99.3215296119374,
          21.296741918100885
        ]
      }
    }
  ]
}